[Satellite]
VERSION=1.1
NAME=SL-3 R/B
NICKNAME=SL-3 R/B
TLE1=1 16111U 85090B   19317.63334789  .00005734  00000-0  67504-4 0  9991
TLE2=2 16111  97.4612 113.3216 0012377   8.8059 351.3414 15.61762949881163
STATUS=0
